#aV2023  6 20  0  0  0.00000000     288 DD+AD WGS84 FIT  NGA
## 2267 172800.00000000   300.00000000 60115 0.0000000000000
+   32     1  2  3  4  5  6  7  8  9 10 11 12 13 14 15 16 17
+         18 19 20 21 22 23 24 25 26 27 28 29 30 31 32  0  0
+          0  0  0  0  0  0  0  0  0  0  0  0  0  0  0  0  0
+          0  0  0  0  0  0  0  0  0  0  0  0  0  0  0  0  0
+          0  0  0  0  0  0  0  0  0  0  0  0  0  0  0  0  0
++         2  2  2  2  2  2  2  2  2  2  2  2  2  2  2  2  2
++         2  2  2  2  2  2  2  2  2  2  2  2  2  2  2  0  0
++         0  0  0  0  0  0  0  0  0  0  0  0  0  0  0  0  0
++         0  0  0  0  0  0  0  0  0  0  0  0  0  0  0  0  0
++         0  0  0  0  0  0  0  0  0  0  0  0  0  0  0  0  0
%c cc cc ccc ccc cccc cccc cccc cccc ccccc ccccc ccccc ccccc
%c cc cc ccc ccc cccc cccc cccc cccc ccccc ccccc ccccc ccccc
%f  0.0000000  0.000000000  0.00000000000  0.000000000000000
%f  0.0000000  0.000000000  0.00000000000  0.000000000000000
%i    0    0    0    0      0      0      0      0         0
%i    0    0    0    0      0      0      0      0         0
/*      NGA, ST. LOUIS,MO.                                  
/*   EPHEMERIS COMPUTED FROM 2 DAYS OF DATA                 
/*   EPOCHA v8 SMOOTHER                                     
/*   G2139 IERS2010 SATIGS SATAPC                           
*  2023  6 20 14 55  0.00000000
P  1  17514.051139   7321.783829  18383.969214    177.238713                    
V  1  10297.106064  21540.826950 -17721.478033     -0.022690                    
P  2  19552.176367  11159.748199  14709.758171   -583.975934                    
V  2   8368.089093  15736.302623 -23747.045062      0.036195                    
P  3  17818.912161  -4963.814976  18875.906029   -263.502853                    
V  3 -11510.066572  21381.255705  16485.741932      0.139732                    
P  4  26558.489353    161.721317  -1835.712686     73.536543                    
V  4   2190.252388   2772.907760  31612.858318      0.104151                    
P  5 -10588.366191 -11661.439304 -21548.578223   -131.841385                    
V  5  13344.288228 -23410.382722   6275.207082     -0.014667                    
P  6  -3054.851329 -23158.781968  12607.935101    583.963526                    
V  6   8976.975936  13230.837949  26692.423637     -0.022572                    
P  7  12168.118058  -9335.690999 -21190.600772    147.182147                    
V  7  13970.228948  24372.287294  -3134.450704     -0.102909                    
P  8  23896.011274   6821.532492  -9983.900085   -128.308282                    
V  8 -12429.304945   2353.465437 -27963.806553     -0.017843                    
P  9  22885.502758  -7869.483504 -11064.234959   -131.287076                    
V  9  13941.085844   2466.960260  27219.819208      0.089506                    
P 10 -10268.597283  23793.006716   5179.524412    -41.948194                    
V 10  -5355.188268   4240.335171 -31462.739161     -0.015932                    
P 11 -12847.267081 -23186.441667  -2017.604515   -243.162974                    
V 11   1242.327700  -3459.850305  31688.413728     -0.152656                    
P 12 -17247.820994    594.884167  19888.933677   -390.941756                    
V 12  13948.923892 -21829.335396  12652.495942     -0.046988                    
P 13 -17756.556262 -13238.155777 -14993.002172    536.575535                    
V 13  18649.884175   1282.926824 -23297.540103      0.051092                    
P 14  13067.006837 -22932.434494   2076.680790     96.816854                    
V 14   4220.489022   -407.452231 -31442.669775      0.123238                    
P 15 -24619.311687  -4323.741666  -9816.500011     50.623159                    
V 15  11331.453104  -4395.134888 -27544.995277      0.035139                    
P 16   6548.476059  15435.281608 -20796.032709   -489.504978                    
V 16 -16078.397161  20227.556354  10542.341621      0.039486                    
P 17   9135.547303 -13747.816352  21261.156344    718.955685                    
V 17  25813.188110   2695.595584  -9437.714683      0.011030                    
P 18  -9830.997521  12407.606683 -21301.912477   -315.070978                    
V 18 -13186.877487 -23610.776119  -7822.627444     -0.148696                    
P 19     58.170070 -14926.189005  21760.744339    333.155959                    
V 19  27893.171048   3497.776909   1995.884821      0.051151                    
P 20  -4959.347446 -20092.925836 -16715.274013    426.977002                    
V 20   9567.923613 -19072.858505  19860.057877     -0.020587                    
P 21  19747.100647  14191.125889  12197.561075    152.942997                    
V 21   6683.024241  12772.819783 -26034.872632     -0.003341                    
P 22   3624.485894  15556.079488  21695.551221    500.827269                    
V 22 -26361.424254  -2307.320431   6034.195271      0.058687                    
P 23 -16564.770864  19360.171703  -7201.317362     35.045592                    
V 23   2446.123414  -9158.161248 -30379.745679      0.037259                    
P 24 -19769.606157 -10239.953943  14425.829053   -231.361504                    
V 24  -8427.439425 -17047.904008 -22657.064877     -0.129513                    
P 25 -18543.025641  13365.945144  12987.160178    451.052040                    
V 25   6322.953190 -16141.016652  25299.516213      0.024808                    
P 26  -1186.186720  23105.845967 -12851.939519    238.600644                    
V 26 -10259.232725  13088.461045  25043.788981     -0.008980                    
P 27  14853.566041  12855.775821 -18316.329910     12.699248                    
V 27 -22594.325995    804.741013 -17605.086152     -0.075503                    
P 28   2168.741254  22533.099901  13875.409801     83.533393                    
V 28 -10917.496767 -14040.632636  24466.188943      0.004123                    
P 29 -24476.840725   4184.289531  -9614.541977   -603.386310                    
V 29 -11832.600100  -3151.865137  28820.841743     -0.011817                    
P 30   4836.206474 -18807.899406 -17884.545308   -509.779961                    
V 30  12892.580119  19324.620124 -16990.749700      0.025154                    
P 31  10167.603262  24075.646308   3006.566823   -218.544641                    
V 31  -4895.993823  -2046.785489  31571.620547     -0.007697                    
P 32  -5589.023242  14928.544102  21399.327690   -504.392311                    
V 32 -26773.967397   -936.622587  -6587.143937     -0.082987                    
EOF
